1 45722U 20036B   23211.39682819  .00000213  00000-0  71451-4 0  9994
2 45722  98.6930 187.8757 0050214 225.0559 134.6554 14.46644578165458
1 45722U 20036B   23212.43431393  .00000227  00000-0  75100-4 0  9999
2 45722  98.6931 188.9403 0050261 221.8856 137.8485 14.46645273165603
1 45722U 20036B   23213.67929680  .00000225  00000-0  74587-4 0  9993
2 45722  98.6932 190.2179 0050319 218.0767 141.6865 14.46645913165788
1 45722U 20036B   23214.78594789  .00000212  00000-0  71188-4 0  9994
2 45722  98.6934 191.3536 0050371 214.7152 145.0748 14.46646479165942
1 45722U 20036B   23215.96176438  .00000241  00000-0  78863-4 0  9991
2 45722  98.6935 192.5602 0050437 211.1192 148.7010 14.46647310166115
1 45722U 20036B   23217.41424307  .00000241  00000-0  78849-4 0  9998
2 45722  98.6936 194.0508 0050519 206.6813 153.1777 14.46648181166328
1 45722U 20036B   23218.45172770  .00000221  00000-0  73620-4 0  9997
2 45722  98.6938 195.1155 0050577 203.5234 156.3644 14.46648638166478
1 45722U 20036B   23219.69670891  .00000227  00000-0  75223-4 0  9998
2 45722  98.6939 196.3931 0050653 199.7255 160.1978 14.46649309166657
1 45722U 20036B   23220.94168957  .00000246  00000-0  80187-4 0  9999
2 45722  98.6940 197.6708 0050727 195.9440 164.0156 14.46650119166833
1 45722U 20036B   23222.39416655  .00000213  00000-0  71377-4 0  9996
2 45722  98.6943 199.1615 0050822 191.5359 168.4672 14.46650726167046
1 45722U 20036B   23223.43164980  .00000195  00000-0  66457-4 0  9995
2 45722  98.6944 200.2262 0050892 188.3901 171.6445 14.46651165167191
1 45722U 20036B   23224.67662917  .00000218  00000-0  72644-4 0  9996
2 45722  98.6944 201.5039 0050979 184.6221 175.4506 14.46651917167372
1 45722U 20036B   23225.78327709  .00000202  00000-0  68300-4 0  9993
2 45722  98.6946 202.6397 0051035 181.3012 178.8054 14.46652413167534
1 45722U 20036B   23226.95908995  .00000210  00000-0  70500-4 0  9999
2 45722  98.6947 203.8464 0051101 177.7786 182.3641 14.46653092167709
1 45722U 20036B   23228.41156414  .00000200  00000-0  67798-4 0  9997
2 45722  98.6950 205.3372 0051196 173.4081 186.7795 14.46653775167912
1 45722U 20036B   23229.44904507  .00000205  00000-0  69136-4 0  9998
2 45722  98.6952 206.4020 0051263 170.2957 189.9237 14.46654367168069
1 45722U 20036B   23230.69402168  .00000205  00000-0  69010-4 0  9994
2 45722  98.6954 207.6799 0051342 166.5619 193.6953 14.46654985168241
1 45722U 20036B   23231.73150167  .00000207  00000-0  69644-4 0  9994
2 45722  98.6956 208.7447 0051401 163.4625 196.8258 14.46655541168392
1 45722U 20036B   23233.18397292  .00000220  00000-0  73112-4 0  9997
2 45722  98.6959 210.2356 0051487 159.1247 201.2062 14.46656346168600
1 45722U 20036B   23234.49811277  .00000233  00000-0  76486-4 0  9997
2 45722  98.6961 211.5845 0051560 155.2097 205.1588 14.46657068168790
1 45722U 20036B   23235.53559109  .00000216  00000-0  72046-4 0  9995
2 45722  98.6963 212.6494 0051619 152.1133 208.2842 14.46657473168940
1 45722U 20036B   23236.50390355  .00000229  00000-0  75372-4 0  9998
2 45722  98.6964 213.6434 0051671 149.2411 211.1825 14.46658048169089
1 45722U 20036B   23237.40305041  .00000225  00000-0  74310-4 0  9993
2 45722  98.6966 214.5663 0051721 146.5629 213.8846 14.46658507169219
1 45722U 20036B   23237.54138072  .00000225  00000-0  74382-4 0  9995
2 45722  98.6966 214.7083 0051730 146.1504 214.3007 14.46658555169235
1 45722U 20036B   23237.88720628  .00000232  00000-0  76217-4 0  9993
2 45722  98.6967 215.0633 0051750 145.1249 215.3351 14.46658781169287
1 45722U 20036B   23238.44052705  .00000234  00000-0  76841-4 0  9995
2 45722  98.6967 215.6313 0051790 143.4806 216.9935 14.46659113169366
1 45722U 20036B   23238.50969208  .00000234  00000-0  76918-4 0  9992
2 45722  98.6967 215.7021 0051813 143.2901 217.1858 14.46659147169378
1 45722U 20036B   23238.85551748  .00000233  00000-0  76575-4 0  9994
2 45722  98.6968 216.0571 0051834 142.2635 218.2210 14.46659319169420
1 45722U 20036B   23239.40883799  .00000236  00000-0  77329-4 0  9991
2 45722  98.6969 216.6251 0051860 140.6198 219.8782 14.46659635169508
1 45722U 20036B   23239.68549817  .00000228  00000-0  75089-4 0  9993
2 45722  98.6969 216.9090 0051871 139.7955 220.7091 14.46659726169543
1 45722U 20036B   23239.89299325  .00000221  00000-0  73282-4 0  9998
2 45722  98.6969 217.1221 0051872 139.1870 221.3224 14.46659819169574
1 45722U 20036B   23240.72297340  .00000206  00000-0  69142-4 0  9990
2 45722  98.6972 217.9744 0051900 136.7165 223.8121 14.46660197169695
1 45722U 20036B   23240.86130335  .00000207  00000-0  69487-4 0  9998
2 45722  98.6972 218.1164 0051906 136.3070 224.2248 14.46660302169717
1 45722U 20036B   23241.82961315  .00000201  00000-0  67805-4 0  9991
2 45722  98.6973 219.1104 0051958 133.4214 227.1319 14.46660753169854
1 45722U 20036B   23241.96794301  .00000203  00000-0  68501-4 0  9991
2 45722  98.6974 219.2524 0051951 133.0110 227.5452 14.46660857169875
1 45722U 20036B   23242.52126245  .00000194  00000-0  66006-4 0  9997
2 45722  98.6975 219.8205 0051996 131.4016 229.1662 14.46661106169952
1 45722U 20036B   23243.21291175  .00000196  00000-0  66402-4 0  9991
2 45722  98.6976 220.5307 0052020 129.3169 231.2651 14.46661445170050
1 45722U 20036B   23243.90456055  .00000197  00000-0  66653-4 0  9996
2 45722  98.6977 221.2408 0052034 127.2711 233.3242 14.46661819170151
1 45722U 20036B   23244.18122005  .00000217  00000-0  72202-4 0  9992
2 45722  98.6977 221.5248 0052052 126.4518 234.1488 14.46662055170190
1 45722U 20036B   23244.66537395  .00000223  00000-0  73843-4 0  9996
2 45722  98.6978 222.0219 0052080 125.0207 235.5887 14.46662349170268
1 45722U 20036B   23244.66537395  .00000223  00000-0  73843-4 0  9996
2 45722  98.6978 222.0219 0052080 125.0207 235.5887 14.46662349170268
1 45722U 20036B   23245.49535189  .00000226  00000-0  74624-4 0  9998
2 45722  98.6979 222.8740 0052111 122.5667 238.0572 14.46662767170389
1 45722U 20036B   23245.70284631  .00000226  00000-0  74663-4 0  9998
2 45722  98.6980 223.0870 0052118 121.9546 238.6728 14.46662849170418
1 45722U 20036B   23245.84117538  .00000308  00000-0  96929-4 0  9994
2 45722  98.6980 223.2291 0052110 121.5467 239.0828 14.46663517170438
1 45722U 20036B   23246.39449388  .00000275  00000-0  87883-4 0  9998
2 45722  98.6981 223.7972 0052129 119.9136 240.7247 14.46663537170519
1 45722U 20036B   23246.74031770  .00000255  00000-0  82414-4 0  9992
2 45722  98.6981 224.1522 0052151 118.8922 241.7516 14.46663583170567
1 45722U 20036B   23247.36280024  .00000258  00000-0  83206-4 0  9992
2 45722  98.6982 224.7913 0052146 117.0618 243.5908 14.46663933170659
1 45722U 20036B   23248.19277685  .00000227  00000-0  74963-4 0  9999
2 45722  98.6984 225.6435 0052167 114.6091 246.0548 14.46664128170779
1 45722U 20036B   23249.36857601  .00000243  00000-0  79242-4 0  9994
2 45722  98.6985 226.8507 0052185 111.1500 249.5279 14.46664835170943
1 45722U 20036B   23249.71439912  .00000245  00000-0  79869-4 0  9991
2 45722  98.6986 227.2058 0052190 110.1298 250.5519 14.46665013170992
1 45722U 20036B   23250.40604508  .00000245  00000-0  79703-4 0  9991
2 45722  98.6987 227.9159 0052197 108.0885 252.6001 14.46665401171099
1 45722U 20036B   23250.68270336  .00000249  00000-0  80985-4 0  9997
2 45722  98.6988 228.2000 0052200 107.2709 253.4203 14.46665562171136
1 45722U 20036B   23250.89019700  .00000266  00000-0  85518-4 0  9992
2 45722  98.6988 228.4130 0052202 106.6613 254.0318 14.46665792171163
1 45722U 20036B   23251.51267794  .00000249  00000-0  80851-4 0  9996
2 45722  98.6989 229.0521 0052221 104.8305 255.8679 14.46666038171257
1 45722U 20036B   23251.78933604  .00000249  00000-0  80985-4 0  9993
2 45722  98.6989 229.3362 0052222 104.0154 256.6851 14.46666179171299
1 45722U 20036B   23251.92766495  .00000271  00000-0  86824-4 0  9994
2 45722  98.6989 229.4782 0052219 103.6098 257.0916 14.46666409171310
1 45722U 20036B   23252.55014533  .00000278  00000-0  88756-4 0  9996
2 45722  98.6990 230.1173 0052226 101.7803 258.9253 14.46666795171408
1 45722U 20036B   23252.96513191  .00000308  00000-0  96839-4 0  9990
2 45722  98.6991 230.5435 0052217 100.5598 260.1481 14.46667256171469
1 45722U 20036B   23253.51844747  .00000301  00000-0  94975-4 0  9998
2 45722  98.6992 231.1116 0052223  98.9356 261.7752 14.46667525171548
1 45722U 20036B   23254.41758464  .00000314  00000-0  98642-4 0  9997
2 45722  98.6993 232.0349 0052231  96.2879 264.4264 14.46668146171679
1 45722U 20036B   23254.55591335  .00000320  00000-0  10028-3 0  9992
2 45722  98.6993 232.1769 0052229  95.8800 264.8348 14.46668258171695
1 45722U 20036B   23255.45504987  .00000317  00000-0  99374-4 0  9997
2 45722  98.6995 233.1002 0052250  93.2317 267.4853 14.46668821171828
1 45722U 20036B   23255.52421412  .00000321  00000-0  10040-3 0  9993
2 45722  98.6995 233.1712 0052240  93.0276 267.6895 14.46668889171830
1 45722U 20036B   23255.87003539  .00000373  00000-0  11465-3 0  9996
2 45722  98.6995 233.5263 0052246  92.0118 268.7058 14.46669469171888
1 45722U 20036B   23256.56167802  .00000372  00000-0  11437-3 0  9995
2 45722  98.6997 234.2366 0052258  89.9721 270.7459 14.46669954171988
1 45722U 20036B   23256.70000648  .00000373  00000-0  11475-3 0  9998
2 45722  98.6997 234.3787 0052258  89.5657 271.1522 14.46670057172006
1 45722U 20036B   23256.90749917  .00000363  00000-0  11195-3 0  9997
2 45722  98.6997 234.5917 0052254  88.9524 271.7653 14.46670165172039
1 45722U 20036B   23257.52997709  .00000372  00000-0  11440-3 0  9993
2 45722  98.6997 235.2309 0052287  87.1412 273.5761 14.46670672172128
1 45722U 20036B   23257.87579787  .00000332  00000-0  10338-3 0  9994
2 45722  98.6997 235.5861 0052276  86.1237 274.5928 14.46670736172178
1 45722U 20036B   23257.94496193  .00000337  00000-0  10483-3 0  9997
2 45722  98.6998 235.6571 0052256  85.9113 274.8049 14.46670835172184
1 45722U 20036B   23258.56743930  .00000335  00000-0  10424-3 0  9993
2 45722  98.6999 236.2963 0052258  84.0818 276.6326 14.46671257172278
